DUPLEX                  
1 66906U 98067XS  26016.89581623  .00024759  00000+0  40216-3 0  9996
2 66906  51.6322 327.8007 0002229  21.8237 338.2848 15.52561180  7077
1998-067XT              
1 66907U 98067XT  26016.90375597  .00074068  00000+0  10187-2 0  9991
2 66907  51.6305 327.1046 0003621  71.1121 289.0263 15.56599209  7084
1998-067XU              
1 66908U 98067XU  26016.58189305  .00056622  00000+0  78536-3 0  9995
2 66908  51.6314 328.7027 0003507  64.7456 295.3898 15.56485324  7034
SILVERSAT               
1 66909U 98067XV  26016.89340317  .00083220  00000+0  11126-2 0  9997
2 66909  51.6313 327.0343 0003769  76.7395 283.4017 15.57308781  7080
1998-067XW              
1 66910U 98067XW  26016.25354074  .00058338  00000+0  79940-3 0  9995
2 66910  51.6297 330.2591 0002566  48.4217 311.6994 15.56802316  6985
1998-067XX              
1 66911U 98067XX  26016.55796091  .00085148  00000+0  11064-2 0  9999
2 66911  51.6292 328.5436 0002601  72.8176 287.3101 15.58063585  7028
1998-067XY              
1 66912U 98067XY  26016.86015351  .00049039  00000+0  71769-3 0  9995
2 66912  51.6313 327.5621 0003339  52.4688 307.6606 15.55090726  7063
