CCSDS_OMM_VERS = 2.0
CREATION_DATE  = 
ORIGINATOR     = 

OBJECT_NAME    = DUPLEX
OBJECT_ID      = 1998-067XS
CENTER_NAME    = EARTH
REF_FRAME      = TEME
TIME_SYSTEM    = UTC
MEAN_ELEMENT_THEORY = SGP/SGP4

EPOCH          = 2026-01-16T21:29:58.522272
MEAN_MOTION    = 15.52561180
ECCENTRICITY   = .0002229
INCLINATION    = 51.6322
RA_OF_ASC_NODE = 327.8007
ARG_OF_PERICENTER = 21.8237
MEAN_ANOMALY   = 338.2848

EPHEMERIS_TYPE = 0
CLASSIFICATION_TYPE = U
NORAD_CAT_ID   = 66906
ELEMENT_SET_NO = 999
REV_AT_EPOCH   = 707
BSTAR          = .40216174E-3
MEAN_MOTION_DOT = .24759E-3
MEAN_MOTION_DDOT = 0

CCSDS_OMM_VERS = 2.0
CREATION_DATE  = 
ORIGINATOR     = 

OBJECT_NAME    = 1998-067XT
OBJECT_ID      = 1998-067XT
CENTER_NAME    = EARTH
REF_FRAME      = TEME
TIME_SYSTEM    = UTC
MEAN_ELEMENT_THEORY = SGP/SGP4

EPOCH          = 2026-01-16T21:41:24.515808
MEAN_MOTION    = 15.56599209
ECCENTRICITY   = .00036214
INCLINATION    = 51.6305
RA_OF_ASC_NODE = 327.1046
ARG_OF_PERICENTER = 71.1121
MEAN_ANOMALY   = 289.0263

EPHEMERIS_TYPE = 0
CLASSIFICATION_TYPE = U
NORAD_CAT_ID   = 66907
ELEMENT_SET_NO = 999
REV_AT_EPOCH   = 708
BSTAR          = .10186869E-2
MEAN_MOTION_DOT = .74068E-3
MEAN_MOTION_DDOT = 0

CCSDS_OMM_VERS = 2.0
CREATION_DATE  = 
ORIGINATOR     = 

OBJECT_NAME    = 1998-067XU
OBJECT_ID      = 1998-067XU
CENTER_NAME    = EARTH
REF_FRAME      = TEME
TIME_SYSTEM    = UTC
MEAN_ELEMENT_THEORY = SGP/SGP4

EPOCH          = 2026-01-16T13:57:55.559520
MEAN_MOTION    = 15.56485324
ECCENTRICITY   = .00035074
INCLINATION    = 51.6314
RA_OF_ASC_NODE = 328.7027
ARG_OF_PERICENTER = 64.7456
MEAN_ANOMALY   = 295.3898

EPHEMERIS_TYPE = 0
CLASSIFICATION_TYPE = U
NORAD_CAT_ID   = 66908
ELEMENT_SET_NO = 999
REV_AT_EPOCH   = 703
BSTAR          = .78535791E-3
MEAN_MOTION_DOT = .56622E-3
MEAN_MOTION_DDOT = 0

CCSDS_OMM_VERS = 2.0
CREATION_DATE  = 
ORIGINATOR     = 

OBJECT_NAME    = SILVERSAT
OBJECT_ID      = 1998-067XV
CENTER_NAME    = EARTH
REF_FRAME      = TEME
TIME_SYSTEM    = UTC
MEAN_ELEMENT_THEORY = SGP/SGP4

EPOCH          = 2026-01-16T21:26:30.033888
MEAN_MOTION    = 15.57308781
ECCENTRICITY   = .00037697
INCLINATION    = 51.6313
RA_OF_ASC_NODE = 327.0343
ARG_OF_PERICENTER = 76.7395
MEAN_ANOMALY   = 283.4017

EPHEMERIS_TYPE = 0
CLASSIFICATION_TYPE = U
NORAD_CAT_ID   = 66909
ELEMENT_SET_NO = 999
REV_AT_EPOCH   = 708
BSTAR          = .11126218E-2
MEAN_MOTION_DOT = .8322E-3
MEAN_MOTION_DDOT = 0

CCSDS_OMM_VERS = 2.0
CREATION_DATE  = 
ORIGINATOR     = 

OBJECT_NAME    = 1998-067XW
OBJECT_ID      = 1998-067XW
CENTER_NAME    = EARTH
REF_FRAME      = TEME
TIME_SYSTEM    = UTC
MEAN_ELEMENT_THEORY = SGP/SGP4

EPOCH          = 2026-01-16T06:05:05.919936
MEAN_MOTION    = 15.56802316
ECCENTRICITY   = .00025669
INCLINATION    = 51.6297
RA_OF_ASC_NODE = 330.2591
ARG_OF_PERICENTER = 48.4217
MEAN_ANOMALY   = 311.6994

EPHEMERIS_TYPE = 0
CLASSIFICATION_TYPE = U
NORAD_CAT_ID   = 66910
ELEMENT_SET_NO = 999
REV_AT_EPOCH   = 698
BSTAR          = .79940034E-3
MEAN_MOTION_DOT = .58338E-3
MEAN_MOTION_DDOT = 0

CCSDS_OMM_VERS = 2.0
CREATION_DATE  = 
ORIGINATOR     = 

OBJECT_NAME    = 1998-067XX
OBJECT_ID      = 1998-067XX
CENTER_NAME    = EARTH
REF_FRAME      = TEME
TIME_SYSTEM    = UTC
MEAN_ELEMENT_THEORY = SGP/SGP4

EPOCH          = 2026-01-16T13:23:27.822624
MEAN_MOTION    = 15.58063585
ECCENTRICITY   = .00026016
INCLINATION    = 51.6292
RA_OF_ASC_NODE = 328.5436
ARG_OF_PERICENTER = 72.8176
MEAN_ANOMALY   = 287.3101

EPHEMERIS_TYPE = 0
CLASSIFICATION_TYPE = U
NORAD_CAT_ID   = 66911
ELEMENT_SET_NO = 999
REV_AT_EPOCH   = 702
BSTAR          = .11064031E-2
MEAN_MOTION_DOT = .85148E-3
MEAN_MOTION_DDOT = 0

CCSDS_OMM_VERS = 2.0
CREATION_DATE  = 
ORIGINATOR     = 

OBJECT_NAME    = 1998-067XY
OBJECT_ID      = 1998-067XY
CENTER_NAME    = EARTH
REF_FRAME      = TEME
TIME_SYSTEM    = UTC
MEAN_ELEMENT_THEORY = SGP/SGP4

EPOCH          = 2026-01-16T20:38:37.263264
MEAN_MOTION    = 15.55090726
ECCENTRICITY   = .00033391
INCLINATION    = 51.6313
RA_OF_ASC_NODE = 327.5621
ARG_OF_PERICENTER = 52.4688
MEAN_ANOMALY   = 307.6606

EPHEMERIS_TYPE = 0
CLASSIFICATION_TYPE = U
NORAD_CAT_ID   = 66912
ELEMENT_SET_NO = 999
REV_AT_EPOCH   = 706
BSTAR          = .71769309E-3
MEAN_MOTION_DOT = .49039E-3
MEAN_MOTION_DDOT = 0

